     2.100          NAVIGATION                              RINEX VERSION / TYPE
fic2rin                                 10/24/2011 00:09:59 PGM / RUN BY / DATE
                                                            END OF HEADER
26 11 10 24  0  0  0.0 -.201015733182D-03 -.131876731757D-10  .000000000000D+00
     .290000000000D+02 -.697812500000D+02  .430875090534D-08 -.361548687200D+00
    -.355392694473D-05  .204278876772D-01  .683404505253D-05  .515365517426D+04
     .864000000000D+05 -.176951289177D-06 -.144994517190D+01  .189989805222D-06
     .985435438381D+00  .261562500000D+03  .116322279438D+01 -.847928176755D-08
    -.517164399116D-09  .100000000000D+01  .165900000000D+04  .000000000000D+00
     .240000000000D+01  .000000000000D+00 -.605359673500D-08  .290000000000D+02
     .792060000000D+05  .400000000000D+01
27 11 10 24  0  0  0.0  .318217091262D-03  .386535248253D-11  .000000000000D+00
     .560000000000D+02 -.221562500000D+02  .381873049402D-08  .594233804017D+00
    -.138580799103D-05  .217146653449D-01  .129137188196D-04  .515361464882D+04
     .864000000000D+05 -.126659870148D-06 -.525386839899D+00 -.344589352608D-06
     .981837896072D+00  .153093750000D+03 -.118994223970D+01 -.803462038848D-08
    -.113219001740D-09  .100000000000D+01  .165900000000D+04  .000000000000D+00
     .340000000000D+01  .630000000000D+02 -.419095158577D-08  .560000000000D+02
     .792060000000D+05  .400000000000D+01
28 11 10 24  0  0  0.0  .780848786235D-04  .318323145621D-11  .000000000000D+00
     .710000000000D+02  .489687500000D+02  .446482883519D-08  .168088415116D+01
     .225380063057D-05  .173329801764D-01  .577792525291D-05  .515369917297D+04
     .864000000000D+05 -.229105353355D-06  .608054934694D+00 -.387430191040D-06
     .976295595819D+00  .276031250000D+03 -.187696775106D+01 -.821391357104D-08
     .457519057505D-09  .100000000000D+01  .165900000000D+04  .000000000000D+00
     .240000000000D+01  .000000000000D+00 -.102445483208D-07  .710000000000D+02
     .792060000000D+05  .400000000000D+01
29 11 10 24  0  0  0.0  .251078046858D-03  .341060513165D-11  .000000000000D+00
     .290000000000D+02 -.665312500000D+02  .465662253845D-08 -.250049341017D+01
    -.346451997757D-05  .213009607978D-02  .757910311222D-05  .515370019913D+04
     .864000000000D+05  .130385160446D-07  .165161578468D+01  .726431608200D-07
     .961941172985D+00  .230156250000D+03 -.116619663913D+01 -.818319800590D-08
    -.382873091058D-09  .100000000000D+01  .165900000000D+04  .000000000000D+00
     .240000000000D+01  .000000000000D+00 -.931322574615D-08  .290000000000D+02
     .792060000000D+05  .400000000000D+01
30 11 10 24  0  0  0.0  .639208592474D-04 -.784439180279D-11  .000000000000D+00
     .570000000000D+02  .546250000000D+02  .490020411317D-08  .137067132061D+01
     .263005495071D-05  .116707618581D-01  .597164034843D-05  .515543231010D+04
     .864000000000D+05 -.372529029846D-07  .462554015391D+00 -.299885869026D-06
     .957245636049D+00  .262625000000D+03  .158349581331D+01 -.849821112746D-08
     .482520098899D-09  .100000000000D+01  .165900000000D+04  .000000000000D+00
     .240000000000D+01  .000000000000D+00 -.419095158577D-08  .570000000000D+02
     .792060000000D+05  .400000000000D+01
31 11 10 24  0  0  0.0  .159570481628D-03  .522959453519D-11  .000000000000D+00
     .520000000000D+02  .115937500000D+02  .378872924435D-08 -.181139359801D+01
     .568106770515D-06  .775608781260D-02  .136159360409D-04  .515376630783D+04
     .864000000000D+05 -.121071934700D-06 -.469829983288D+00  .128522515297D-06
     .980611256818D+00  .129687500000D+03 -.951419842753D+00 -.774032241550D-08
     .110718897601D-09  .100000000000D+01  .165900000000D+04  .000000000000D+00
     .240000000000D+01  .000000000000D+00 -.130385160446D-07  .520000000000D+02
     .792060000000D+05  .400000000000D+01
32 11 10 24  0  0  0.0 -.350310932845D-03 -.613908923697D-11  .000000000000D+00
     .400000000000D+02  .613125000000D+02  .530486382601D-08 -.105590090777D+01
     .317022204399D-05  .121852748562D-01  .429525971413D-05  .515353644180D+04
     .864000000000D+05 -.100582838058D-06 -.249097010898D+01 -.178813934326D-06
     .953669058819D+00  .294906250000D+03 -.706284206132D+00 -.883036782026D-08
     .444304221340D-09  .100000000000D+01  .165900000000D+04  .000000000000D+00
     .240000000000D+01  .000000000000D+00 -.279396772385D-08  .400000000000D+02
     .792060000000D+05  .400000000000D+01
30 11 10 23 23 59 12.0  .639185309410D-04 -.795807864051D-11  .000000000000D+00
     .190000000000D+02  .546250000000D+02  .490020411317D-08  .136367800897D+01
     .263005495071D-05  .116707570851D-01  .597164034843D-05  .515543232727D+04
     .863520000000D+05 -.372529029846D-07  .462554420620D+00 -.299885869026D-06
     .957245612642D+00  .262625000000D+03  .158349500724D+01 -.849821112746D-08
     .482520098899D-09  .100000000000D+01  .165900000000D+04  .000000000000D+00
     .240000000000D+01  .000000000000D+00 -.419095158577D-08  .190000000000D+02
     .811260000000D+05  .400000000000D+01
